full_name,a,e,i,om,w,q,ad,per_y,data_arc,condition_code,diameter,H
" 48453 (1991 PT9)",2.286341048952961,.217993720431419,24.7548308917153,286.8552221109318,357.9268124015712,1.787933057516632,2.78474904038929,3.45716193741579,9721,0,4.250,13.6
"  9182 (1991 NB4)",2.286399204833983,.08857699770242228,3.724506520415242,271.0721670867382,157.4805609148735,2.083876827720584,2.488921581947383,3.45729384396813,30808,0,6.767,13.5
"  2513 Baetsle (1950 SH)",2.286401495122044,.1810643776544738,3.161877213014204,257.6018548922646,97.79242789753219,1.872415631339513,2.700387358904575,3.45729903873078,27233,0,5.013,13.4
"  5735 Loripaul (1989 LM)",2.286406881092906,.148850755609898,5.077888294132519,282.4523574817952,356.9761096902058,1.946073489210556,2.626740272975255,3.45731125503851,23305,0,4.047,13.9
"  8508 (1991 CU1)",2.286505405218573,.1318965041488523,3.873679439091821,276.5046406088729,228.5690507836491,1.984923335552788,2.588087474884357,3.45753472723032,22770,0,4.834,13.7
"  8937 Gassan (1997 AK19)",2.286573290059946,.1603745692596232,3.238999644949684,164.7041221646997,150.4446800149248,1.919865083586023,2.65328149653387,3.45768870627062,24698,0,,13.5
" 15750 (1991 VJ4)",2.286607302605532,.1487943340741927,7.019403182649328,42.39771338939855,278.7257949288252,1.946373091725156,2.626841513485908,3.45776585571031,22153,0,6.242,13.6
"  8852 Buxus (1991 GG6)",2.286656319367409,.182052737918232,4.1256927980886,26.89504774889085,350.9079077708245,1.870364275748545,2.702948362986273,3.45787703968603,15453,0,,13.9
" 17251 Vondracek (2000 GA127)",2.286701510340582,.1689924585610558,7.091556218481776,131.499171387839,142.1004488504387,1.900266200112847,2.673136820568316,3.45797954673919,9875,0,5.203,13.9
" 16423 (1988 BZ3)",2.28711791624481,.1711235242136536,5.290176802104515,258.0403026260701,43.57644341152763,1.89573823812481,2.67849759436481,3.45892413131456,16595,0,4.206,13.9
" 39769 (1997 GD14)",2.287127591461713,.1824707902715354,25.17457125568107,200.19464654514,216.6420398610117,1.869793612395861,2.704461570527565,3.45894607981776,24699,0,3.704,14.0
"  4689 Donn (1980 YB)",2.287173052413131,.07160900675532106,5.160522692112682,105.7081014752358,31.51951730819779,2.123390861852291,2.450955242973971,3.45904920989346,19619,0,6.138,13.2
" 80593 (2000 AG144)",2.287285294557207,.3282358784014047,24.32965360483577,320.5191733802773,58.89366236383582,1.536516196743606,3.038054392370808,3.45930384029581,15570,0,,13.9
"  2954 Delsemme (1982 BT1)",2.28729020804008,.1944691997844344,3.933565832840081,164.3816364362809,50.96163856208972,1.842482711607753,2.732097704472407,3.45931498707274,26796,0,5.317,13.4
" 10236 (1998 QA93)",2.287336836731678,.1367014719499342,3.938761863644691,39.84776975230558,12.58054063389639,1.974654524305151,2.600019149158205,3.45942076998991,24188,0,5.385,13.5
"  4001 Ptolemaeus (1949 PV)",2.287444271631301,.17199267959336,5.456804989485311,130.6693165195921,204.0894393262285,1.894020601932952,2.68086794132965,3.45966450336668,24744,0,4.641,13.7
" 13243 (1998 KZ47)",2.287448157554229,.1177636508232079,7.621480255022077,107.3929459208681,176.2903102560625,2.018069911451823,2.556826403656635,3.45967331931609,8240,0,,13.9
"  3398 Stattmayer (1978 PC)",2.287648874692476,.2367202544667139,24.16450749008921,64.28512759639283,42.53417106350609,1.746116050944782,2.829181698440171,3.46012869420098,14475,0,5.703,13.3
" 10087 (1990 SG3)",2.287676745666266,.1903509663325804,4.047335886086744,131.0122962799785,197.9615364192001,1.852215266472119,2.723138224860413,3.46019192775767,12319,0,4.195,14.0
" 20435 (1999 FU28)",2.287875898446848,.2576286841750194,8.358003354455422,185.8209760533437,122.4217592426801,1.698453441174246,2.87729835571945,3.46064377601967,16604,0,4.165,14.0
"  3684 Berry (1983 AK)",2.287967022007095,.153550846996332,6.811191032257759,94.96902263026516,67.96021947018421,1.93664774787823,2.63928629613596,3.46085052848499,16958,0,12.37,13.8
"  6726 Suthers (1991 PS)",2.288044074036291,.09314267623014773,4.299995981447774,277.6665852138983,146.6111713548928,2.074929525648021,2.501158622424561,3.46102535692341,23518,0,3.455,13.8
"  7032 Hitchcock (1994 VC2)",2.288231687529132,.09313302424185083,3.29897024536126,250.1104265702985,202.7219850131077,2.07512175030351,2.501341624754753,3.46145105787962,10817,0,4.810,13.8
" 19281 (1996 AP3)",2.288241672173227,.19344825031787,6.821816964043351,273.3568050660094,66.14484909073252,1.84558532438688,2.730898019959576,3.46147371384236,10708,0,4.506,13.6
" 13205 (1997 GB19)",2.288352989574716,.1164642503126427,7.202057160667088,214.0259006679498,46.66150323088246,2.021841674193202,2.55486430495623,3.46172630535184,13745,0,3.370,14.0
"  5895 (1982 UF2)",2.288355464958354,.1344067076542269,5.449972164887877,225.160421649529,156.5572152242835,1.980785140970744,2.595925788945963,3.46173192234123,12888,0,4.017,13.9
"  2745 San Martin (1976 SR10)",2.288367075976865,.1903526000887368,22.39735823327142,137.7734475880692,303.7714140128189,1.852770453107209,2.723963698846521,3.46175826939594,15009,0,5.249,13.3
" 32802 (1990 SK)",2.288379607781945,.2681180268883357,26.08052955103934,47.01357431725545,327.0091630013358,1.674823782571946,2.901935432991943,3.46178670592151,14843,0,4.242,14.0
" 16993 (1999 CC10)",2.288384814161067,.149206435502602,9.617567460497364,134.1247999971792,34.40354114911915,1.94694307298181,2.629826555340324,3.46179851999132,14451,0,5.024,13.8
" 19568 Rachelmarie (1999 KY14)",2.288473441330735,.161934717150504,3.765803893644705,300.8804615317251,316.6788598337789,1.917890141902402,2.659056740759068,3.46199963064379,11884,0,3.729,14.0
" 20308 (1998 FP109)",2.288582858870122,.079573144918164,7.260342938782107,332.0440314708486,261.9982470804436,2.106473123384024,2.47069259435622,3.46224792367744,9248,0,,14.0
"  6311 Porubcan (1990 RQ2)",2.288678702235437,.2258541296456693,5.167983741598972,344.0976779326974,70.20798168509992,1.771771165903472,2.805586238567401,3.46246541873041,24194,0,,13.8
"  1640 Nemo (1951 QA)",2.288741928665301,.3427850359162368,7.108007312787088,355.4611205803371,354.8839736665317,1.504195444444769,3.073288412885834,3.46260889944617,40676,0,,13.3
" 18609 Shinobuyama (1998 BN48)",2.288764689664847,.1406155436214756,5.709066813213686,133.1474714637802,239.0541315511608,1.966928798605987,2.610600580723707,3.46266055181983,11438,0,4.824,13.9
" 23551 (1994 GO9)",2.288795118971086,.1867647602545682,8.855949622460889,95.98599380040453,229.2903425014552,1.861328847304625,2.716261390637547,3.46272960656518,8746,0,4.991,14.0
"  6855 Armellini (1989 BG)",2.28884631938806,.06422643028193818,7.570562065872705,330.2326209238024,279.4620515113122,2.141841890829812,2.435850747946308,3.46284579926615,10895,0,6.712,13.7
"  4824 Stradonice (1986 WL1)",2.28890357730114,.05637585607016603,6.474124741908987,40.33196416108706,41.32610783823216,2.159864678668722,2.417942475933557,3.46297574020766,14989,0,4.119,13.6
"  3188 Jekabsons (1978 OM)",2.289048143568985,.1343390586500754,4.694814605967558,336.482360240215,22.8338508355347,1.981539570757225,2.596556716380745,3.46330382570774,23136,0,4.261,13.5
" 10348 Poelchau (1992 HL4)",2.289200504654449,.1398121085565208,8.203070137144204,24.01782643840276,208.0922264100973,1.969142555190059,2.609258454118839,3.46364961234759,14009,0,4.902,13.6
" 11958 Galiani (1994 EJ7)",2.289504877050466,.1449758962550406,5.997141641251697,89.99785670623264,293.0778912155474,1.957581855519788,2.621427898581144,3.46434042626155,8753,0,,14.0
"  8732 Champion (1996 XR25)",2.289552883837067,.09353253998561829,4.673236150421811,134.4395729551473,267.3604802430926,2.075405187180388,2.503700580493745,3.46444938828542,15426,0,,13.9
" 11155 Kinpu (1997 YW13)",2.289762277568177,.1146942390737782,5.430224264419149,258.4835323017372,266.72193687508,2.027139735482654,2.552384819653701,3.464924667045,18585,0,6.782,13.6
" 10493 (1986 QH2)",2.289799556327622,.0648054208331721,7.253875315971833,129.3652394195209,307.6919977709347,2.1414081324562,2.438190980199044,3.46500928409466,11385,0,3.064,14.0
"  9329 Nikolaimedtner (1990 EO)",2.28986525694984,.09109478612083563,5.98182859418305,243.8024082641505,21.06113318466732,2.081270471122462,2.498460042777218,3.46515841607762,20916,0,4.110,13.9
"  9972 Minoruoda (1993 KQ)",2.289960935226259,.1987832818049553,9.431015601971165,97.81826911060993,125.1218981712182,1.834754985316839,2.745166885135679,3.46537559731587,21682,0,9.095,13.9
"  7558 Yurlov (1982 TB2)",2.289963398652187,.1004102928279117,4.51653924980816,263.6865815494805,162.8886101620353,2.060027503228322,2.519899294076054,3.4653811891351,24183,0,,13.4
"  5318 Dientzenhofer (1985 HG1)",2.290114181737203,.1327486297755982,3.30955615133332,107.6351294199598,54.41796675711415,1.986104662081924,2.594123701392482,3.46572346281601,16975,0,6.267,13.5
" 18590 (1997 YO10)",2.290127647259768,.1311175671701028,6.209915192127319,60.05334597910304,208.2822822991595,1.989851681642076,2.59040361287746,3.46575402975005,14506,0,5.023,13.7
"  6658 Akiraabe (1992 WT2)",2.290262511697842,.07595626170414377,4.612974375939369,112.8472321073057,217.3630309906238,2.116302732988131,2.464222290407553,3.46606017896288,14889,0,,13.4
" 10757 (1990 SF3)",2.29042609503461,.06591748227912413,3.785929936455076,118.8829393694431,285.6541920077132,2.139446973503522,2.441405216565697,3.46643153365097,9402,0,4.515,13.8
"  8022 Scottcrossfield (1990 VD7)",2.290457360493688,.003090021393632059,3.416528763044669,346.5551146776318,280.2539497148842,2.28337979824856,2.297534922738815,3.46650251167337,17039,0,8.328,13.9
"  2736 Ops (1979 OC)",2.290676256811967,.08484998012222991,7.460389104034655,255.4966358317533,65.12044409146559,2.096312421955008,2.485040091668926,3.46699945790304,13979,0,3.976,13.1
"  5227 Bocacara (1986 PE)",2.291019825407158,.0861849133714835,8.625422824306316,253.8929401333903,87.83665136530652,2.09356848022209,2.488471170592225,3.46777948746367,11409,0,5.150,13.4
